{
    "links": {
        "self": "http://www.neowsapp.com/rest/v1/neo/3878580?api_key=iIulBulltgU6a56xZRHN4H3l9WmuAYTsLGpBGhQ2"
    },
    "id": "3878580",
    "neo_reference_id": "3878580",
    "name": "(2019 TN2)",
    "designation": "2019 TN2",
    "nasa_jpl_url": "http://ssd.jpl.nasa.gov/sbdb.cgi?sstr=3878580",
    "absolute_magnitude_h": 23.2,
    "estimated_diameter": {
        "kilometers": {
            "estimated_diameter_min": 0.0608912622,
            "estimated_diameter_max": 0.1361570015
        },
        "meters": {
            "estimated_diameter_min": 60.8912622106,
            "estimated_diameter_max": 136.1570015386
        },
        "miles": {
            "estimated_diameter_min": 0.0378360645,
            "estimated_diameter_max": 0.0846040122
        },
        "feet": {
            "estimated_diameter_min": 199.7744887109,
            "estimated_diameter_max": 446.7093369279
        }
    },
    "is_potentially_hazardous_asteroid": false,
    "close_approach_data": [
        {
            "close_approach_date": "2019-04-20",
            "close_approach_date_full": "2019-Apr-20 11:49",
            "epoch_date_close_approach": 1555760940000,
            "relative_velocity": {
                "kilometers_per_second": "17.0048048756",
                "kilometers_per_hour": "61217.2975520869",
                "miles_per_hour": "38038.0480261842"
            },
            "miss_distance": {
                "astronomical": "0.3683663707",
                "lunar": "143.2945182023",
                "kilometers": "55106824.436350409",
                "miles": "34241792.8917132842"
            },
            "orbiting_body": "Earth"
        },
        {
            "close_approach_date": "2019-10-05",
            "close_approach_date_full": "2019-Oct-05 20:40",
            "epoch_date_close_approach": 1570308000000,
            "relative_velocity": {
                "kilometers_per_second": "15.2704724614",
                "kilometers_per_hour": "54973.7008612182",
                "miles_per_hour": "34158.5198490164"
            },
            "miss_distance": {
                "astronomical": "0.1338837105",
                "lunar": "52.0807633845",
                "kilometers": "20028717.918496635",
                "miles": "12445268.219798163"
            },
            "orbiting_body": "Earth"
        }
    ],
    "orbital_data": {
        "orbit_id": "3",
        "orbit_determination_date": "2019-10-12 06:37:12",
        "first_observation_date": "2019-10-05",
        "last_observation_date": "2019-10-11",
        "data_arc_in_days": 6,
        "observations_used": 36,
        "orbit_uncertainty": "9",
        "minimum_orbit_intersection": ".0842696",
        "jupiter_tisserand_invariant": "5.171",
        "epoch_osculation": "2458762.5",
        "eccentricity": ".1381645840929244",
        "semi_major_axis": "1.197318273203293",
        "inclination": "29.72307707543436",
        "ascending_node_longitude": "195.4142336481958",
        "orbital_period": "478.5340472505573",
        "perihelion_distance": "1.031891291959302",
        "perihelion_argument": "126.2715927821504",
        "aphelion_distance": "1.362745254447285",
        "perihelion_time": "2458704.402492246665",
        "mean_anomaly": "43.70661379554795",
        "mean_motion": ".7522975681007424",
        "equinox": "J2000",
        "orbit_class": {
            "orbit_class_type": "AMO",
            "orbit_class_description": "Near-Earth asteroid orbits similar to that of 1221 Amor",
            "orbit_class_range": "1.017 AU < q (perihelion) < 1.3 AU"
        }
    },
    "is_sentry_object": false
}